IRIDIUM 136             
1 42962U 17061H   23365.63502917  .00000330  00000+0  11089-3 0  9997
2 42962  86.3959  40.7552 0002397  94.5963 265.5506 14.34219674326040
